{
  "icao": "UIII",
  "name": "Иркутск. Иркутск",
  "metar": "2021-11-25 05:00:00\nUIII 250500Z 15005MPS CAVOK 00/M07 Q1016 R12/820550 NOSIG RMK QFE720/0960",
  "taf": "2021-11-25 02:00:00\nTAF UIII 250200Z 2503/2603 14005G12MPS CAVOK"
}